NORAD_CAT_ID,OBJECT_NAME,OBJECT_TYPE,EPOCH,MEAN_MOTION,ECCENTRICITY,INCLINATION,RA_OF_ASC_NODE,ARG_OF_PERICENTER,MEAN_ANOMALY,BSTAR,MEAN_MOTION_DOT,MEAN_MOTION_DDOT,TLE_LINE0,TLE_LINE1,TLE_LINE2,SEMIMAJOR_AXIS,PERIOD,APOGEE,PERIGEE,DECAYED
52852.0,STARLINK-4184,PAYLOAD,2023-07-01 02:31:40,15.08837673,0.0001174,53.2173,115.1117,96.2165,263.8961,-2.6754e-05,-7.14e-06,0.0,0 STARLINK-4184,1 52852U 22062Y   23182.10532585 -.00000714  00000-0 -26754-4 0  9991,2 52852  53.2173 115.1117 0001174  96.2165 263.8961 15.08837673 58077,6917.888,95.438,540.565,538.94,0.0
52852.0,STARLINK-4184,PAYLOAD,2023-07-02 03:57:50,15.08835361,0.0001155,53.2179,110.3559,103.5199,256.5922,-1.2961e-05,-4.94e-06,0.0,0 STARLINK-4184,1 52852U 22062Y   23183.16517082 -.00000494  00000-0 -12961-4 0  9993,2 52852  53.2179 110.3559 0001155 103.5199 256.5922 15.08835361 58234,6917.895,95.438,540.559,538.961,0.0
52852.0,STARLINK-4184,PAYLOAD,2023-07-03 11:45:33,15.08840619,0.0001113,53.2177,104.4068,94.5747,265.5373,5.7104e-05,6.21e-06,0.0,0 STARLINK-4184,1 52852U 22062Y   23184.48996783  .00000621  00000-0  57104-4 0  9996,2 52852  53.2177 104.4068 0001113  94.5747 265.5373 15.08840619 58437,6917.878,95.438,540.513,538.974,0.0
52852.0,STARLINK-4184,PAYLOAD,2023-07-05 00:19:25,15.0884159,0.0001184,53.2174,97.5678,85.5232,274.5896,-1.4655e-05,-5.21e-06,0.0,0 STARLINK-4184,1 52852U 22062Y   23186.01349199 -.00000521  00000-0 -14655-4 0  9995,2 52852  53.2174  97.5678 0001184  85.5232 274.5896 15.08841590 58664,6917.876,95.437,540.56,538.921,0.0
52852.0,STARLINK-4184,PAYLOAD,2023-07-06 03:20:58,15.0884479,0.0001082,53.2174,92.5122,98.1774,261.9341,-1.9356e-05,-5.96e-06,0.0,0 STARLINK-4184,1 52852U 22062Y   23187.13956943 -.00000596  00000-0 -19356-4 0  9995,2 52852  53.2174  92.5122 0001082  98.1774 261.9341 15.08844790 58830,6917.866,95.437,540.479,538.982,0.0
52852.0,STARLINK-4184,PAYLOAD,2023-07-07 22:16:23,15.08838862,0.0001156,53.2166,84.482,88.5149,271.5976,3.2674e-05,2.32e-06,0.0,0 STARLINK-4184,1 52852U 22062Y   23188.92805030  .00000232  00000-0  32674-4 0  9996,2 52852  53.2166  84.4820 0001156  88.5149 271.5976 15.08838862 59102,6917.884,95.438,540.549,538.949,0.0
52852.0,STARLINK-4184,PAYLOAD,2023-07-09 01:17:57,15.08840117,0.00013,53.2179,79.4282,92.8798,267.2343,-4.0273e-05,-9.29e-06,0.0,0 STARLINK-4184,1 52852U 22062Y   23190.05413312 -.00000929  00000-0 -40273-4 0  9990,2 52852  53.2179  79.4282 0001300  92.8798 267.2343 15.08840117 59275,6917.88,95.438,540.644,538.846,0.0
52852.0,STARLINK-4184,PAYLOAD,2023-07-09 17:11:48,15.0881794,0.0002014,53.2184,76.4554,131.1197,228.9969,0.0001594,2.248e-05,0.0,0 STARLINK-4184,1 52852U 22062Y   23190.71653798  .00002248  00000-0  15940-3 0  9993,2 52852  53.2184  76.4554 0002014 131.1197 228.9969 15.08817940 59370,6917.948,95.439,541.206,538.42,0.0
52852.0,STARLINK-4184,PAYLOAD,2023-07-10 01:08:44,15.08839599,0.000159,53.2188,74.9694,123.2299,236.8846,-4.9729e-06,-3.67e-06,0.0,0 STARLINK-4184,1 52852U 22062Y   23191.04773446 -.00000367  00000-0 -49729-5 0  9999,2 52852  53.2188  74.9694 0001590 123.2299 236.8846 15.08839599 59427,6917.882,95.438,540.847,538.647,0.0
52852.0,STARLINK-4184,PAYLOAD,2023-07-11 23:14:55,15.08838805,0.0001225,53.2182,66.3448,92.718,267.3952,1.6537e-05,-2.5e-07,0.0,0 STARLINK-4184,1 52852U 22062Y   23192.96869869 -.00000025  00000-0  16537-4 0  9996,2 52852  53.2182  66.3448 0001225  92.7180 267.3952 15.08838805 59715,6917.884,95.438,540.596,538.902,0.0
52852.0,STARLINK-4184,PAYLOAD,2023-07-13 00:41:05,15.08844008,0.000118,53.2178,61.586,88.2621,271.8507,9.8967e-06,-1.3e-06,0.0,0 STARLINK-4184,1 52852U 22062Y   23194.02853634 -.00000130  00000-0  98967-5 0  9993,2 52852  53.2178  61.5860 0001180  88.2621 271.8507 15.08844008 59870,6917.868,95.437,540.549,538.917,0.0
52852.0,STARLINK-4184,PAYLOAD,2023-07-14 18:01:07,15.08839553,0.0001184,53.2174,53.8551,83.6901,276.4226,5.9863e-05,6.65e-06,0.0,0 STARLINK-4184,1 52852U 22062Y   23195.75077759  .00000665  00000-0  59863-4 0  9993,2 52852  53.2174  53.8551 0001184  83.6901 276.4226 15.08839553 60130,6917.882,95.438,540.566,538.928,0.0
52852.0,STARLINK-4184,PAYLOAD,2023-07-16 00:13:28,15.08828524,0.0001185,53.2184,48.2053,87.0973,273.0155,-9.7282e-05,-1.835e-05,0.0,0 STARLINK-4184,1 52852U 22062Y   23197.00935463 -.00001835  00000-0 -97282-4 0  9997,2 52852  53.2184  48.2053 0001185  87.0973 273.0155 15.08828524 60325,6917.915,95.438,540.6,538.961,0.0
52852.0,STARLINK-4184,PAYLOAD,2023-07-16 20:53:27,15.08847219,0.0001096,53.2181,44.3397,93.7175,266.3942,2.2873e-05,7.6e-07,0.0,0 STARLINK-4184,1 52852U 22062Y   23197.87046206  .00000076  00000-0  22873-4 0  9998,2 52852  53.2181  44.3397 0001096  93.7175 266.3942 15.08847219 60454,6917.858,95.437,540.482,538.965,0.0
52852.0,STARLINK-4184,PAYLOAD,2023-07-17 23:55:00,15.08846631,0.0001198,53.2191,39.2849,83.6293,276.4836,0.00022139,3.238e-05,0.0,0 STARLINK-4184,1 52852U 22062Y   23198.99653788  .00003238  00000-0  22139-3 0  9998,2 52852  53.2191  39.2849 0001198  83.6293 276.4836 15.08846631 60622,6917.86,95.437,540.554,538.896,0.0
52852.0,STARLINK-4184,PAYLOAD,2023-07-18 15:48:53,15.08838241,0.0001113,53.2197,36.3119,97.045,263.0669,-1.1409e-05,-4.69e-06,0.0,0 STARLINK-4184,1 52852U 22062Y   23199.65895046 -.00000469  00000-0 -11409-4 0  9991,2 52852  53.2197  36.3119 0001113  97.0450 263.0669 15.08838241 60722,6917.886,95.438,540.521,538.981,0.0
52852.0,STARLINK-4184,PAYLOAD,2023-07-19 01:21:11,15.08847556,0.0001219,53.2193,34.5274,94.8238,265.2893,7.9702e-06,-1.61e-06,0.0,0 STARLINK-4184,1 52852U 22062Y   23200.05638305 -.00000161  00000-0  79702-5 0  9990,2 52852  53.2193  34.5274 0001219  94.8238 265.2893 15.08847556 60784,6917.857,95.437,540.566,538.879,0.0
52852.0,STARLINK-4184,PAYLOAD,2023-07-20 23:27:22,15.08846159,0.0001294,53.2186,25.9037,99.6171,260.4967,4.2993e-05,3.97e-06,0.0,0 STARLINK-4184,1 52852U 22062Y   23201.97734002  .00000397  00000-0  42993-4 0  9994,2 52852  53.2186  25.9037 0001294  99.6171 260.4967 15.08846159 61079,6917.862,95.437,540.622,538.831,0.0
52852.0,STARLINK-4184,PAYLOAD,2023-07-21 15:21:13,15.08840204,0.0001424,53.2206,22.93,111.0451,249.0694,-1.2696e-05,-4.9e-06,0.0,0 STARLINK-4184,1 52852U 22062Y   23202.63974512 -.00000490  00000-0 -12696-4 0  9993,2 52852  53.2206  22.9300 0001424 111.0451 249.0694 15.08840204 61173,6917.88,95.438,540.73,538.76,0.0
52852.0,STARLINK-4184,PAYLOAD,2023-07-24 13:18:12,15.08836859,8.89e-05,53.2187,9.8462,98.5597,261.5496,0.00025552,3.781e-05,0.0,0 STARLINK-4184,1 52852U 22062Y   23205.55431283  .00003781  00000-0  25552-3 0  9998,2 52852  53.2187   9.8462 0000889  98.5597 261.5496 15.08836859 61123,6917.89,95.438,540.37,539.14,0.0
52852.0,STARLINK-4184,PAYLOAD,2023-07-25 13:08:59,15.08847925,0.000156,53.2205,5.3843,143.8759,216.2338,-4.1355e-05,-9.46e-06,0.0,0 STARLINK-4184,1 52852U 22062Y   23206.54791524 -.00000946  00000-0 -41355-4 0  9997,2 52852  53.2205   5.3843 0001560 143.8759 216.2338 15.08847925 61273,6917.856,95.437,540.8,538.642,0.0
52852.0,STARLINK-4184,PAYLOAD,2023-07-25 19:30:32,15.08846828,9e-05,53.2183,4.1969,90.1261,269.9834,3.5734e-05,2.81e-06,0.0,0 STARLINK-4184,1 52852U 22062Y   23206.81287479  .00000281  00000-0  35734-4 0  9990,2 52852  53.2183   4.1969 0000900  90.1261 269.9834 15.08846828 61315,6917.86,95.437,540.347,539.102,0.0
52852.0,STARLINK-4184,PAYLOAD,2023-07-26 19:21:18,15.0886013,0.00013,53.2203,359.7374,109.2634,250.8499,5.9274e-05,6.56e-06,0.0,0 STARLINK-4184,1 52852U 22062Y   23207.80645992  .00000656  00000-0  59274-4 0  9999,2 52852  53.2203 359.7374 0001300 109.2634 250.8499 15.08860130 61462,6917.819,95.436,540.583,538.785,0.0
52852.0,STARLINK-4184,PAYLOAD,2023-07-27 03:18:14,15.0884436,9.24e-05,53.2188,358.2484,86.0417,274.068,-9.5202e-05,-1.803e-05,0.0,0 STARLINK-4184,1 52852U 22062Y   23208.13767175 -.00001803  00000-0 -95202-4 0  9992,2 52852  53.2188 358.2484 0000924  86.0417 274.0680 15.08844360 62000,6917.867,95.437,540.371,539.093,0.0
52852.0,STARLINK-4184,PAYLOAD,2023-07-27 16:01:20,15.0883648,0.0001013,53.2192,355.8698,82.4651,277.6456,5.3228e-06,-2.03e-06,0.0,0 STARLINK-4184,1 52852U 22062Y   23208.66759724 -.00000203  00000-0  53228-5 0  9996,2 52852  53.2192 355.8698 0001013  82.4651 277.6456 15.08836480 62087,6917.891,95.438,540.457,539.055,0.0
52852.0,STARLINK-4184,PAYLOAD,2023-07-28 09:30:34,15.08845233,9.66e-05,53.2188,352.5987,68.9242,291.1854,-4.2595e-05,-9.66e-06,0.0,0 STARLINK-4184,1 52852U 22062Y   23209.39623572 -.00000966  00000-0 -42595-4 0  9999,2 52852  53.2188 352.5987 0000966  68.9242 291.1854 15.08845233 61705,6917.864,95.437,540.398,539.061,0.0
52852.0,STARLINK-4184,PAYLOAD,2023-07-28 19:02:53,15.08820267,0.0001062,53.2176,350.8165,78.0953,282.0158,0.00042178,6.428e-05,0.0,0 STARLINK-4184,1 52852U 22062Y   23209.79367683  .00006428  00000-0  42178-3 0  9994,2 52852  53.2176 350.8165 0001062  78.0953 282.0158 15.08820267 62257,6917.941,95.439,540.54,539.071,0.0
52852.0,STARLINK-4184,PAYLOAD,2023-07-28 20:38:15,15.08854001,8.58e-05,53.2186,350.5195,69.1006,291.0078,3.2629e-05,2.32e-06,0.0,0 STARLINK-4184,1 52852U 22062Y   23209.85990569  .00000232  00000-0  32629-4 0  9994,2 52852  53.2186 350.5195 0000858  69.1006 291.0078 15.08854001 62265,6917.838,95.437,540.296,539.109,0.0
52852.0,STARLINK-4184,PAYLOAD,2023-07-29 15:42:54,15.08838263,0.0001013,53.2174,346.9504,82.028,278.0827,0.00015835,2.233e-05,0.0,0 STARLINK-4184,1 52852U 22062Y   23210.65479561  .00002233  00000-0  15835-3 0  9990,2 52852  53.2174 346.9504 0001013  82.0280 278.0827 15.08838263 62389,6917.886,95.438,540.451,539.05,0.0
52852.0,STARLINK-4184,PAYLOAD,2023-07-29 20:29:03,15.08848542,9.28e-05,53.2189,346.0576,75.3943,284.7152,0.00020139,2.92e-05,0.0,0 STARLINK-4184,1 52852U 22062Y   23210.85350888  .00002920  00000-0  20139-3 0  9998,2 52852  53.2189 346.0576 0000928  75.3943 284.7152 15.08848542 62410,6917.854,95.437,540.361,539.077,0.0
